H0,DIST_H0,H_DIST_MIN,PT_DIST_MIN,DIST_MIN,HF,N_PT,DIST_HF,RCS,CCSDS_OMM_VERS,COMMENT,CREATION_DATE,ORIGINATOR,OBJECT_NAME,OBJECT_ID,CENTER_NAME,REF_FRAME,TIME_SYSTEM,MEAN_ELEMENT_THEORY,EPOCH,MEAN_MOTION,ECCENTRICITY,INCLINATION,RA_OF_ASC_NODE,ARG_OF_PERICENTER,MEAN_ANOMALY,EPHEMERIS_TYPE,CLASSIFICATION_TYPE,NORAD_CAT_ID,ELEMENT_SET_NO,REV_AT_EPOCH,BSTAR,MEAN_MOTION_DOT,MEAN_MOTION_DDOT,SEMIMAJOR_AXIS,PERIOD,APOAPSIS,PERIAPSIS,OBJECT_TYPE,RCS_SIZE,COUNTRY_CODE,LAUNCH_DATE,SITE,DECAY_DATE,FILE,GP_ID,TLE_LINE0,TLE_LINE1,TLE_LINE2
2022-08-06T11:26:16.000,1098267.619357617,11:27:42.000,87,917439.1472557188,11:29:07.000,171,1097380.630255853,18.1619,2.0,GENERATED VIA SPACE-TRACK.ORG API,2022-08-06T18:07:45,18 SPCS,ARIANE 3 DEB,1984-114E,EARTH,TEME,UTC,SGP4,2022-08-06T08:37:17.992128,10.76552658,0.232269,6.746,153.295,356.5036,224.5041,0,U,27740,999,91323,0.001788,0.00060361,-7.452e-06,8663.865,133.76,4298.077,273.382,DEBRIS,LARGE,FR,1984-11-10,FRGUI,,3530579,209680876,0 ARIANE 3 DEB,1 27740U 84114E   22218.35923602  .00060361 -74520-5  17880-2 0  9999,2 27740   6.7460 153.2950 2322690 356.5036 224.5041 10.76552658913233
2022-08-06T13:47:45.000,1094854.4812762225,13:49:50.000,126,510589.7614184216,13:51:53.000,248,1093886.1683800232,18.1619,2.0,GENERATED VIA SPACE-TRACK.ORG API,2022-08-06T18:07:45,18 SPCS,ARIANE 3 DEB,1984-114E,EARTH,TEME,UTC,SGP4,2022-08-06T08:37:17.992128,10.76552658,0.232269,6.746,153.295,356.5036,224.5041,0,U,27740,999,91323,0.001788,0.00060361,-7.452e-06,8663.865,133.76,4298.077,273.382,DEBRIS,LARGE,FR,1984-11-10,FRGUI,,3530579,209680876,0 ARIANE 3 DEB,1 27740U 84114E   22218.35923602  .00060361 -74520-5  17880-2 0  9999,2 27740   6.7460 153.2950 2322690 356.5036 224.5041 10.76552658913233
2022-08-06T16:09:58.000,1096371.4837487577,16:11:24.000,87,860137.9293152911,16:12:50.000,172,1097617.4837431472,18.1619,2.0,GENERATED VIA SPACE-TRACK.ORG API,2022-08-06T18:07:45,18 SPCS,ARIANE 3 DEB,1984-114E,EARTH,TEME,UTC,SGP4,2022-08-06T08:37:17.992128,10.76552658,0.232269,6.746,153.295,356.5036,224.5041,0,U,27740,999,91323,0.001788,0.00060361,-7.452e-06,8663.865,133.76,4298.077,273.382,DEBRIS,LARGE,FR,1984-11-10,FRGUI,,3530579,209680876,0 ARIANE 3 DEB,1 27740U 84114E   22218.35923602  .00060361 -74520-5  17880-2 0  9999,2 27740   6.7460 153.2950 2322690 356.5036 224.5041 10.76552658913233
2022-08-06T16:00:14.000,1097067.3392994695,16:01:19.000,66,990805.5436322923,16:02:25.000,131,1098355.493694527,0.1,2.0,GENERATED VIA SPACE-TRACK.ORG API,2022-08-06T18:07:45,18 SPCS,LARETS,2003-042F,EARTH,TEME,UTC,SGP4,2022-08-06T13:31:46.141536,14.63248959,0.00135,98.219,347.3098,122.6924,237.5582,0,U,27944,999,703,1.0425e-05,6e-08,0.0,7060.84,98.411,692.237,673.173,PAYLOAD,MEDIUM,CIS,2003-09-27,PKMTR,,3530579,209679390,0 LARETS,1 27944U 03042F   22218.56372849  .00000006  00000-0  10425-4 0  9996,2 27944  98.2190 347.3098 0013500 122.6924 237.5582 14.63248959  7039
2022-08-06T11:48:08.000,1099161.8253206313,11:49:54.000,107,735585.9010016606,11:51:39.000,211,1098892.7509058677,11.93,2.0,GENERATED VIA SPACE-TRACK.ORG API,2022-08-06T18:07:45,18 SPCS,ATLAS 3B CENTAUR R/B,2003-057B,EARTH,TEME,UTC,SGP4,2022-08-06T12:43:37.824960,12.93073399,0.1405285,28.0692,279.2792,189.4738,167.6385,0,U,28118,999,32210,0.0011494,0.00215824,-4.198e-06,7667.487,111.363,2366.853,211.852,ROCKET BODY,LARGE,US,2003-12-18,AFETR,,3530579,209679646,0 ATLAS 3B CENTAUR R/B,1 28118U 03057B   22218.53029890  .00215824 -41980-5  11494-2 0  9997,2 28118  28.0692 279.2792 1405285 189.4738 167.6385 12.93073399322102
2022-08-06T13:45:38.000,1097257.575023609,13:47:06.000,89,861021.8550568298,13:48:35.000,177,1095731.3465675744,11.93,2.0,GENERATED VIA SPACE-TRACK.ORG API,2022-08-06T18:07:45,18 SPCS,ATLAS 3B CENTAUR R/B,2003-057B,EARTH,TEME,UTC,SGP4,2022-08-06T12:43:37.824960,12.93073399,0.1405285,28.0692,279.2792,189.4738,167.6385,0,U,28118,999,32210,0.0011494,0.00215824,-4.198e-06,7667.487,111.363,2366.853,211.852,ROCKET BODY,LARGE,US,2003-12-18,AFETR,,3530579,209679646,0 ATLAS 3B CENTAUR R/B,1 28118U 03057B   22218.53029890  .00215824 -41980-5  11494-2 0  9997,2 28118  28.0692 279.2792 1405285 189.4738 167.6385 12.93073399322102
2022-08-06T15:28:26.000,1099455.5416698498,15:30:24.000,119,686715.3578297499,15:32:21.000,235,1094456.071408827,16.0376,2.0,GENERATED VIA SPACE-TRACK.ORG API,2022-08-06T18:07:45,18 SPCS,ARIANE 5 R/B,2004-049H,EARTH,TEME,UTC,SGP4,2022-08-06T08:27:59.683968,14.8046585,0.0090036,98.1022,335.562,273.3394,151.618,0,U,28499,999,95146,3.0973e-05,1.91e-06,0.0,7005.991,97.267,690.935,564.777,ROCKET BODY,LARGE,FR,2004-12-18,FRGUI,,3530579,209681922,0 ARIANE 5 R/B,1 28499U 04049H   22218.35277412  .00000191  00000-0  30973-4 0  9992,2 28499  98.1022 335.5620 0090036 273.3394 151.6180 14.80465850951467
2022-08-06T15:29:07.000,1094079.4503863566,15:30:52.000,106,685352.4712437076,15:32:39.000,212,1098813.2293196341,1.854,2.0,GENERATED VIA SPACE-TRACK.ORG API,2022-08-06T18:07:45,18 SPCS,PEGASUS R/B,2006-008D,EARTH,TEME,UTC,SGP4,2022-08-06T12:31:02.972352,11.55501116,0.1923134,105.5268,330.1864,148.1645,225.1678,0,U,28983,999,65809,0.00069164,0.00016396,2.4648e-06,8264.595,124.621,3475.853,297.068,ROCKET BODY,LARGE,US,2006-03-22,WRAS,,3530579,209681952,0 PEGASUS R/B,1 28983U 06008D   22218.52156218  .00016396  24648-5  69164-3 0  9992,2 28983 105.5268 330.1864 1923134 148.1645 225.1678 11.55501116658091
2022-08-06T11:03:59.000,1098293.5716366505,11:05:56.000,118,512359.6177954444,11:07:51.000,232,1098056.78127626,11.437000000000001,2.0,GENERATED VIA SPACE-TRACK.ORG API,2022-08-06T18:07:45,18 SPCS,CZ-3 R/B,2006-048B,EARTH,TEME,UTC,SGP4,2022-08-06T04:10:33.619008,6.88244926,0.4169038,28.3134,99.2213,1.5739,359.4256,0,U,29517,999,29648,0.0001488,2.98e-06,0.0,11674.541,209.228,10163.567,429.246,ROCKET BODY,LARGE,PRC,2006-10-28,XSC,,3530579,209682988,0 CZ-3 R/B,1 29517U 06048B   22218.17400022  .00000298  00000-0  14880-3 0  9996,2 29517  28.3134  99.2213 4169038   1.5739 359.4256  6.88244926296481
2022-08-06T12:51:41.000,1099683.5838882704,12:52:59.000,79,940285.2659662564,12:54:17.000,156,1099823.835590728,1.3,2.0,GENERATED VIA SPACE-TRACK.ORG API,2022-08-06T18:07:45,18 SPCS,PEGASUS R/B,2007-015B,EARTH,TEME,UTC,SGP4,2022-08-06T06:30:56.019744,15.03732261,0.0020619,97.8767,118.5889,109.1613,251.1846,0,U,31305,999,83557,0.00011758,1.555e-05,0.0,6933.537,95.762,569.698,541.106,ROCKET BODY,LARGE,US,2007-04-25,WRAS,,3530579,209681896,0 PEGASUS R/B,1 31305U 07015B   22218.27148171  .00001555  00000-0  11758-3 0  9992,2 31305  97.8767 118.5889 0020619 109.1613 251.1846 15.03732261835572
2022-08-06T15:52:59.000,1096699.8721481173,15:54:47.000,109,794109.809334639,15:56:35.000,216,1096671.694284103,1.1837,2.0,GENERATED VIA SPACE-TRACK.ORG API,2022-08-06T18:07:45,18 SPCS,PEGASUS R/B,2008-017B,EARTH,TEME,UTC,SGP4,2022-08-05T23:59:13.698240,15.77175573,0.0048111,12.9953,346.3628,54.0393,306.4345,0,U,32766,999,79328,0.00041615,0.00080072,0.0,6716.584,91.302,370.764,306.135,ROCKET BODY,LARGE,US,2008-04-16,WRAS,,3530579,209684890,0 PEGASUS R/B,1 32766U 08017B   22217.99946410  .00080072  00000-0  41615-3 0  9993,2 32766  12.9953 346.3628 0048111  54.0393 306.4345 15.77175573793288
2022-08-06T17:29:31.000,1095185.8324952754,17:31:58.000,148,371070.2606258569,17:34:26.000,295,1099729.9338874882,1.1837,2.0,GENERATED VIA SPACE-TRACK.ORG API,2022-08-06T18:07:45,18 SPCS,PEGASUS R/B,2008-017B,EARTH,TEME,UTC,SGP4,2022-08-05T23:59:13.698240,15.77175573,0.0048111,12.9953,346.3628,54.0393,306.4345,0,U,32766,999,79328,0.00041615,0.00080072,0.0,6716.584,91.302,370.764,306.135,ROCKET BODY,LARGE,US,2008-04-16,WRAS,,3530579,209684890,0 PEGASUS R/B,1 32766U 08017B   22217.99946410  .00080072  00000-0  41615-3 0  9993,2 32766  12.9953 346.3628 0048111  54.0393 306.4345 15.77175573793288
2022-08-06T16:52:35.000,1098775.1055059198,16:54:16.000,102,822383.9220716666,16:55:57.000,202,1096476.7526409363,20.5448,2.0,GENERATED VIA SPACE-TRACK.ORG API,2022-08-06T18:07:45,18 SPCS,COSMOS 2441,2008-037A,EARTH,TEME,UTC,SGP4,2022-08-06T10:19:10.043904,14.51952386,0.0016574,98.1513,168.9367,6.4724,353.6683,0,U,33272,999,74324,2.1038e-05,4.1e-07,0.0,7097.416,99.177,731.044,707.518,PAYLOAD,LARGE,CIS,2008-07-26,PKMTR,,3530579,209685400,0 COSMOS 2441,1 33272U 08037A   22218.42997736  .00000041  00000-0  21038-4 0  9990,2 33272  98.1513 168.9367 0016574   6.4724 353.6683 14.51952386743240
2022-08-06T15:31:17.000,1099891.6718313156,15:32:38.000,82,928479.8782896586,15:33:59.000,162,1097245.5370307132,15.8606,2.0,GENERATED VIA SPACE-TRACK.ORG API,2022-08-06T18:07:45,18 SPCS,H-2A R/B,2009-002J,EARTH,TEME,UTC,SGP4,2022-08-06T09:06:40.526208,14.88372845,0.0049722,98.1237,157.9856,118.9908,241.6305,0,U,33500,999,73353,7.8789e-05,6.85e-06,0.0,6981.156,96.75,637.733,568.309,ROCKET BODY,LARGE,JPN,2009-01-23,TNSTA,,3530579,209684911,0 H-2A R/B,1 33500U 09002J   22218.37963572  .00000685  00000-0  78789-4 0  9991,2 33500  98.1237 157.9856 0049722 118.9908 241.6305 14.88372845733536
2022-08-06T12:44:01.000,1096736.5605763127,12:45:25.000,85,918142.8481388732,12:46:50.000,169,1098901.7937095498,2.5642,2.0,GENERATED VIA SPACE-TRACK.ORG API,2022-08-06T18:07:45,18 SPCS,CRYOSAT 2,2010-013A,EARTH,TEME,UTC,SGP4,2022-08-06T11:54:08.672544,14.51895743,0.0007057,92.036,296.2469,82.6128,277.5881,0,U,36508,999,65339,5.8706e-06,2.7e-07,0.0,7097.601,99.181,724.474,714.457,PAYLOAD,LARGE,ESA,2010-04-08,TTMTR,,3530579,209685642,0 CRYOSAT 2,1 36508U 10013A   22218.49593371  .00000027  00000-0  58706-5 0  9993,2 36508  92.0360 296.2469 0007057  82.6128 277.5881 14.51895743653399
